GLOBALSTAR M084         
1 38040U 11080A   25332.56086372 -.00000080  00000+0  13257-3 0  9996
2 38040  52.0014 268.0616 0000935  49.1852 122.0990 12.62265887643423
GLOBALSTAR M080         
1 38041U 11080B   25332.61155329 -.00000089  00000+0  84270-4 0  9995
2 38041  52.0068 269.5558 0000605 100.2553  71.4082 12.62271545643556
GLOBALSTAR M082         
1 38042U 11080C   25332.15032514 -.00000087  00000+0  95442-4 0  9996
2 38042  52.0072 226.4400 0000774  90.5282  73.9405 12.62265484644201
GLOBALSTAR M092         
1 38043U 11080D   25332.35788965 -.00000087  00000+0  92616-4 0  9997
2 38043  52.0102 316.1936 0000401  61.9825  85.6323 12.62267845642681
GLOBALSTAR M090         
1 38044U 11080E   25332.41607778 -.00000084  00000+0  11091-3 0  9991
2 38044  52.0112 219.5228 0000772  70.3581 101.2930 12.62264765644350
GLOBALSTAR M086         
1 38045U 11080F   25332.44038808 -.00000085  00000+0  10686-3 0  9997
2 38045  51.9887 219.7052 0001095   8.0359 162.9067 12.62280405644304
GLOBALSTAR M097         
1 39072U 13005A   25332.43075006 -.00000086  00000+0  96504-4 0  9992
2 39072  52.0018 134.4551 0000802  98.9238 261.1719 12.62267764591556
GLOBALSTAR M093         
1 39073U 13005B   25332.64224719 -.00000091  00000+0  71553-4 0  9996
2 39073  52.0082 127.0825 0000617 112.9478 247.1454 12.62270778591534
